JY1SAT (JO-97)          
1 43803U 18099AX  26068.68634132  .00017774  00000+0  60804-3 0  9996
2 43803  97.4249 131.3625 0004723 256.6795 103.3919 15.30302628398390
STARLINK-32673          
1 63000U 25031V   26068.55581253  .00039836  00000+0  14494-2 0  9998
2 63000  42.9989 144.1823 0001598 266.5838  93.4830 15.27578326 61073
